#dP2023 10  8  0  0  0.00000000      96 __u+U ITR00 FIT  IAC
## 2283      0.00000000   900.00000000 60225 0.0000000000000
+  119   C07C08C09C10C11C12C13C14C16C19C20C21C22C23C24C25C26
+        C27C28C29C30C32C33C34C35C36C37C38C39C40C41C42C43C44
+        C45C46E02E03E04E05E07E08E09E10E11E12E13E14E15E18E19
+        E21E24E25E26E27E30E31E33E34E36G01G02G03G04G05G06G07
+        G08G09G10G11G12G13G14G15G16G17G18G19G20G21G22G23G24
+        G25G26G27G28G29G30G31G32J02J03J04R01R02R03R04R05R07
+        R08R09R11R12R13R14R15R16R17R18R19R20R21R22R24R25R26
++         8  9  8  6  6  6  9  7  9  6  6  8  6  6  6  8  7
++         6  5  7  7  6  7  6  7  6  6  8 10  6  7  7  6  6
++         7  7  5  6  6  6  5  6  5  5  6  5  5  4  7  6  5
++         6  6  4  4  6  7  6  5  5  5  7  5  5  4  5  7  5
++         5  5  4  8  5  4  4  5  3  4  6  5  6  4  5  6  5
++         5  6  5  6  6  6  5  5  7  8  6  6  6  6  5  5  7
++         7  4  6  6  7  5  6  6  5  6  6  6  5  6  6  6  7
%c M  cc GPS ccc cccc cccc cccc cccc ccccc ccccc ccccc ccccc
%c cc cc ccc ccc cccc cccc cccc cccc ccccc ccccc ccccc ccccc
%f  0.0000000  0.000000000  0.00000000000  0.000000000000000
%f  0.0000000  0.000000000  0.00000000000  0.000000000000000
%i    0    0    0    0      0      0      0      0         0
%i    0    0    0    0      0      0      0      0         0
/* INFORMATION & ANALYSIS CENTER (IAC)      ULTRA-RAPID DATA
/* S/V CLOCKS ARE ALIGNED TO GNSS TIME                      
/* G:C1WC2W R:C1PC2P E:C1XC5X C:C2IC6I J:C1CC2S             
/* PCV:IGS20_2280 OL/AL:FES2004  NONE     YN ORB:CoN CLK:CoN
*  2023 10 08  7 15  0.00000000
PC07 -17704.060142  29500.917337 -24408.317362   -124.872560
PC08 -11684.314237  40307.012024  -2609.709777    307.620800
PC09   5915.774153  34011.477114  25016.571495     68.826930
PC10  -9472.468660  29769.004524 -28191.381562   -204.270749
PC11  22901.865854  15827.102070  -1636.571753    192.499856
PC12   8877.385918  19448.043175 -17883.650358    906.286201
PC13  -6831.964874  41286.000959   3794.918715    364.218677
PC14  17217.616061   6614.040633  20930.502937    547.382748
PC16  -4865.228071  27254.188278  32134.834108   -115.792712
PC19 -23254.523414   1238.716188 -15375.996972   -971.332448
PC20 -10169.196661 -12147.914533 -22974.116237    221.180793
PC21 -10319.495554  19347.890071  17275.839882   -969.759538
PC22 -23738.423327  14617.494652   1474.917556   -275.295020
PC23  14440.903957 -13213.176589 -19886.453073   -850.245229
PC24   7708.487786  24489.183495 -10912.442877    472.206671
PC25  15905.540213   6642.474319 -21950.752622    228.164471
PC26  -3521.762363  27103.749794   5523.559005   -188.664438
PC27    168.239154 -17543.615159  21683.749155    210.372572
PC28  16794.482658  -7112.079716  21126.544892    158.191961
PC29 -25656.383781  -8488.196209  -6973.990973    184.873475
PC30 -17595.728478 -18558.377877  11146.715610     -6.138738
PC32  10266.652730 -19435.047467 -17184.501010   -529.182785
PC33  23186.086713  -1254.116769  15463.607741   -957.472768
PC34  18680.049693  18232.750726  -9896.439395    276.412042
PC35 -16526.611668   7821.342814 -21082.179109    529.934676
PC36 -15596.844759  -7990.784531  21743.087039   -189.695243
PC37   4643.920604 -26809.082835  -6254.697576   -847.379069
PC38 -15338.849641  37710.324284 -10591.743089    109.768449
PC39  -8517.962540  23928.900664  33734.685656     -5.132705
PC40 -24604.700271  23333.039215 -25206.050754    -39.324381
PC41  23957.532859 -14286.418592   -691.716920   -873.942023
PC42   8677.816808  13153.660237  23063.962545   -527.218828
PC43  25649.993455   9154.402828   6114.118092     43.058991
PC44    237.535758  17609.791765 -21662.281165    255.105663
PC45 -14188.360301  13729.797486  19711.994905    -33.829273
PC46  -8295.786597 -23836.058146  11951.892684    -90.195753
PE02 -20336.255258  19469.464508   9116.863012     68.620435
PE03 -23204.170276   9732.471871  15587.112246    -63.036286
PE04   3502.352717 -16766.126298 -24142.342379   -229.442504
PE05 -29387.590862  -2935.117109  -1995.286886     25.455285
PE07  18036.247722  14106.857627  18751.132687    -80.514998
PE08  -4075.122929  16560.469236  24186.634151   -158.127512
PE09 -17934.599018 -14034.621031 -18921.033698   -183.787368
PE10  -9624.606264 -27328.410610   6094.081390   -569.535423
PE11 -15767.560321 -24653.746632  -4448.022502   3057.995611
PE12  -2467.490768 -25635.416048  14585.229603   -727.997307
PE13  15444.861709  24971.791482   3732.968310    -19.717524
PE14  19273.936074  12788.603257 -12309.933923    362.502991
PE15   2197.614659  25431.486728 -14975.263044    -59.454547
PE18 -30749.235283  -4676.610069    494.272898    619.903598
PE19  24933.638013  -8126.133859 -13732.624275  -1470.193685
PE21  19588.184426  -2176.323962 -22081.069667   -557.142452
PE24  -6979.479094 -17796.998100  22596.276816   -363.886458
PE25 -19458.322095   1774.449292  22243.281261     -2.929431
PE26  19499.584483   9141.608948  20306.015068    245.014887
PE27   7467.889494  17284.481200 -22829.989915   -169.194302
PE30  -9276.619067  26349.199225  -9774.326545   -562.426984
PE31   8906.048900 -26352.002623  10138.334719     -7.038699
PE33  12512.085407 -10398.833314  24732.516835      0.135998
PE34 -12139.242309  11009.600324 -24650.776629    -71.215257
PE36 -19461.461376  -9922.440570 -19972.096991   -126.930308
PG01  16944.547413   6500.049321  19173.577651    164.018871
PG02  19063.640382  11312.331763  15268.302590   -544.682957
PG03  18289.691542  -5273.919715  18328.265664    -91.614443
PG04  26442.476737    469.753239  -3095.534825    178.323798
PG05 -11882.964645  -9542.633909 -21930.871088   -145.679074
PG06  -4293.993172 -24181.299353  10061.522871    535.171837
PG07  10732.795484 -11719.388215 -20736.209979     46.205177
PG08  25098.139903   5981.252416  -7220.609761   -146.036812
PG09  22639.286170  -7440.092695 -11875.144148    -38.463428
PG10  -9672.972049  23475.910774   7376.569807    -56.469571
PG11 -12208.301367 -23466.478656  -2673.499505   -405.224590
PG12 -17886.769596   1255.280468  19297.579838   -433.470390
PG13 -18769.920820 -13379.330882 -13581.628881    581.543081
PG14  12753.587164 -22863.481978   3917.680184    207.735759
PG15 -25743.653769  -3002.898350  -6831.788093     85.007765
PG16   7052.795817  14719.362411 -21176.538452   -442.498091
PG17   8943.249287 -13606.637941  21442.322182    723.852693
PG18  -9117.480114  13727.585624 -20780.302860   -442.099176
PG19  -1016.758622 -15163.412705  21614.066009    382.028250
PG20  -4540.034138 -19887.797773 -17065.372836    407.925044
PG21  19176.559969  14684.937344  12541.059311    147.260564
PG22   8413.931414 -22910.633592  11265.894059    106.998207
PG23 -16665.543921  19856.810104  -5318.397981     79.465144
PG24 -19286.083840  -9917.117189  15221.963752   -340.437513
PG25 -18858.968391  14524.995547  11178.741953    471.670638
PG26    327.228350  21881.838023 -14928.000290    224.431909
PG27  16154.310264  12875.192202 -17178.348419    -51.807486
PG28   3512.203611  23621.380207  11603.839947    -21.781933
PG29 -23130.244090   5071.239857 -12181.116726   -609.927799
PG30   3335.108494 -20514.229109 -16267.601659   -480.652051
PG31   9589.199625  24394.325971   2310.619016   -224.384730
PG32  -3593.987370  15046.280431  21754.482728   -569.588914
PJ02 -34133.586711  24606.822369   7728.575145     -5.301791
PJ03 -22339.936451  19445.666988 -25405.336770     -4.535485
PJ04 -27393.835308  31965.638536   9467.493934     71.035907
PR01  15188.334383   4460.178987  19993.691588     67.239900
PR02  24312.974672  -5356.234770   5760.450924    -22.394299
PR03  19122.319327 -12386.349618 -11498.842571     86.682215
PR04   3704.760693 -12110.247933 -22123.902689    205.954759
PR05 -13747.189384  -5552.790613 -20743.762757    120.278507
PR07 -18437.681733  12548.418301  12360.528107     66.374234
PR08  -3296.868769  12205.924273  22199.014732    -72.863235
PR09 -11837.575373   4319.762235  22210.169908    146.461396
PR11  -2704.091111  25116.586229  -3589.850181   -188.970039
PR12   6772.978766  14897.900244 -19533.519140     32.119009
PR13  11400.816225  -1772.075330 -22760.270230    -39.992834
PR14   9588.404978 -20254.688189 -12152.682391     25.381183
PR15   2173.364456 -24917.987781   5012.661960     85.558204
PR16  -6646.641997 -15072.890341  19474.672722     19.432797
PR17   7096.651841  -7850.318023  23220.731115     23.874404
PR18  -7329.203567 -17091.155670  17458.032591    105.788840
PR19 -16936.356846 -18620.399562   4186.329997   -250.113217
PR20 -18406.721616  -7820.265943 -15803.100078   -101.396524
PR21  -6432.457511   8315.404593 -23236.072551    -43.912808
PR22   7463.348535  17877.082389 -16569.023801     87.691014
PR24  18701.012161   6389.897456  16132.665424    -27.383898
PR25  -7712.191535   7685.407383 -23060.210500     29.141567
PR26  -3808.232766  12336.247878  22016.741119    -21.371758
EOF
